start=new Date('2022-03-18T00:00:00.000Z').valueOf();
sats=[{"OBJECT_TYPE":"PAYLOAD","CENTER_NAME":"EARTH","OBJECT_ID":"2021-040E","DECAY_DATE":null,"CLASSIFICATION_TYPE":"U","MEAN_ELEMENT_THEORY":"SGP4","REF_FRAME":"TEME","TLE_LINE1":"1 48432U 21040E   22076.91667824 -.00017292  00000-0 -11445-2 0  9998","ELEMENT_SET_NO":"999","INCLINATION":"53.0548","MEAN_MOTION":"15.06409096","LAUNCH_DATE":"2021-05-09","TLE_LINE2":"2 48432  53.0548 188.3768 0001503  77.4833 101.6799 15.06409096  3589","RCS_SIZE":"LARGE","TIME_SYSTEM":"UTC","PERIAPSIS":"546.145","ECCENTRICITY":"0.00015030","BSTAR":"-0.00114450000000","MEAN_ANOMALY":"101.6799","FILE":"3363151","COUNTRY_CODE":"US","ARG_OF_PERICENTER":"77.4833","RA_OF_ASC_NODE":"188.3768","OBJECT_NAME":"STARLINK-2680","MEAN_MOTION_DDOT":"0.0000000000000","SITE":"AFETR","APOAPSIS":"548.227","NORAD_CAT_ID":"48432","SEMIMAJOR_AXIS":"6925.321","EPHEMERIS_TYPE":"0","PERIOD":"95.592","REV_AT_EPOCH":"358","GP_ID":"198991516","EPOCH":"2022-03-17T22:00:00.999936","MEAN_MOTION_DOT":"-0.00017292"},{"MEAN_ANOMALY":"335.6331","FILE":"3363151","COUNTRY_CODE":"US","ARG_OF_PERICENTER":"76.1248","RA_OF_ASC_NODE":"193.3667","PERIAPSIS":"546.198","BSTAR":"-0.00455600000000","ECCENTRICITY":"0.00013100","SITE":"AFETR","OBJECT_NAME":"STARLINK-2699","MEAN_MOTION_DDOT":"0.0000000000000","EPHEMERIS_TYPE":"0","PERIOD":"95.590","APOAPSIS":"548.013","NORAD_CAT_ID":"48433","SEMIMAJOR_AXIS":"6925.241","GP_ID":"198992768","EPOCH":"2022-03-17T22:00:00.999936","MEAN_MOTION_DOT":"-0.00067566","REV_AT_EPOCH":"360","CENTER_NAME":"EARTH","OBJECT_TYPE":"PAYLOAD","CLASSIFICATION_TYPE":"U","MEAN_ELEMENT_THEORY":"SGP4","OBJECT_ID":"2021-040F","DECAY_DATE":null,"TLE_LINE1":"1 48433U 21040F   22076.91667824 -.00067566  00000-0 -45560-2 0  9993","REF_FRAME":"TEME","ELEMENT_SET_NO":"999","MEAN_MOTION":"15.06435242","INCLINATION":"53.0542","RCS_SIZE":"LARGE","TIME_SYSTEM":"UTC","LAUNCH_DATE":"2021-05-09","TLE_LINE2":"2 48433  53.0542 193.3667 0001310  76.1248 335.6331 15.06435242  3606"},{"COUNTRY_CODE":"US","ARG_OF_PERICENTER":"76.1107","RA_OF_ASC_NODE":"198.3774","MEAN_ANOMALY":"288.0305","FILE":"3363151","PERIAPSIS":"546.338","ECCENTRICITY":"0.00011940","BSTAR":"-0.00088955000000","SITE":"AFETR","OBJECT_NAME":"STARLINK-2692","MEAN_MOTION_DDOT":"0.0000000000000","PERIOD":"95.591","EPHEMERIS_TYPE":"0","SEMIMAJOR_AXIS":"6925.300","NORAD_CAT_ID":"48434","APOAPSIS":"547.992","EPOCH":"2022-03-17T22:00:00.999936","MEAN_MOTION_DOT":"-0.00013512","GP_ID":"198992518","REV_AT_EPOCH":"360","CENTER_NAME":"EARTH","OBJECT_TYPE":"PAYLOAD","CLASSIFICATION_TYPE":"U","MEAN_ELEMENT_THEORY":"SGP4","OBJECT_ID":"2021-040G","DECAY_DATE":null,"MEAN_MOTION":"15.06415958","INCLINATION":"53.0530","TLE_LINE1":"1 48434U 21040G   22076.91667824 -.00013512  00000-0 -88955-3 0  9992","REF_FRAME":"TEME","ELEMENT_SET_NO":"999","TIME_SYSTEM":"UTC","RCS_SIZE":"LARGE","LAUNCH_DATE":"2021-05-09","TLE_LINE2":"2 48434  53.0530 198.3774 0001194  76.1107 288.0305 15.06415958  3606"},{"MEAN_MOTION":"15.04753445","INCLINATION":"53.0552","ELEMENT_SET_NO":"999","TLE_LINE1":"1 48435U 21040H   22076.69680947  .00000412  00000-0  48332-4 0  9998","REF_FRAME":"TEME","TLE_LINE2":"2 48435  53.0552 209.2582 0001603  59.6469 300.4677 15.04753445 47830","LAUNCH_DATE":"2021-05-09","TIME_SYSTEM":"UTC","RCS_SIZE":"LARGE","OBJECT_TYPE":"PAYLOAD","CENTER_NAME":"EARTH","OBJECT_ID":"2021-040H","DECAY_DATE":null,"MEAN_ELEMENT_THEORY":"SGP4","CLASSIFICATION_TYPE":"U","SEMIMAJOR_AXIS":"6930.400","NORAD_CAT_ID":"48435","APOAPSIS":"553.376","PERIOD":"95.697","EPHEMERIS_TYPE":"0","REV_AT_EPOCH":"4783","MEAN_MOTION_DOT":"0.00000412","EPOCH":"2022-03-17T16:43:24.338208","GP_ID":"198991767","BSTAR":"0.00004833200000","ECCENTRICITY":"0.00016030","PERIAPSIS":"551.154","COUNTRY_CODE":"US","ARG_OF_PERICENTER":"59.6469","RA_OF_ASC_NODE":"209.2582","FILE":"3363151","MEAN_ANOMALY":"300.4677","MEAN_MOTION_DDOT":"0.0000000000000","OBJECT_NAME":"STARLINK-2633","SITE":"AFETR"},{"DECAY_DATE":null,"OBJECT_ID":"2021-040J","MEAN_ELEMENT_THEORY":"SGP4","CLASSIFICATION_TYPE":"U","OBJECT_TYPE":"PAYLOAD","CENTER_NAME":"EARTH","TLE_LINE2":"2 48436  53.0542 223.7620 0001638  69.7637 290.3528 15.06408674 47645","LAUNCH_DATE":"2021-05-09","RCS_SIZE":"LARGE","TIME_SYSTEM":"UTC","ELEMENT_SET_NO":"999","REF_FRAME":"TEME","TLE_LINE1":"1 48436U 21040J   22076.82792843  .00000335  00000-0  41390-4 0  9994","INCLINATION":"53.0542","MEAN_MOTION":"15.06408674","MEAN_MOTION_DDOT":"0.0000000000000","OBJECT_NAME":"STARLINK-2639","SITE":"AFETR","BSTAR":"0.00004139000000","ECCENTRICITY":"0.00016380","PERIAPSIS":"546.053","FILE":"3363151","MEAN_ANOMALY":"290.3528","COUNTRY_CODE":"US","ARG_OF_PERICENTER":"69.7637","RA_OF_ASC_NODE":"223.7620","REV_AT_EPOCH":"4764","GP_ID":"198992017","MEAN_MOTION_DOT":"0.00000335","EPOCH":"2022-03-17T19:52:13.016352","APOAPSIS":"548.321","NORAD_CAT_ID":"48436","SEMIMAJOR_AXIS":"6925.322","EPHEMERIS_TYPE":"0","PERIOD":"95.592"},{"LAUNCH_DATE":"2021-05-09","TLE_LINE2":"2 48437  53.0511 234.1397 0001775  65.8113 294.3061 15.06394194 47497","TIME_SYSTEM":"UTC","RCS_SIZE":"LARGE","MEAN_MOTION":"15.06394194","INCLINATION":"53.0511","REF_FRAME":"TEME","TLE_LINE1":"1 48437U 21040K   22076.74592309  .00003279  00000-0  23895-3 0  9990","ELEMENT_SET_NO":"999","DECAY_DATE":null,"OBJECT_ID":"2021-040K","CLASSIFICATION_TYPE":"U","MEAN_ELEMENT_THEORY":"SGP4","OBJECT_TYPE":"PAYLOAD","CENTER_NAME":"EARTH","REV_AT_EPOCH":"4749","EPOCH":"2022-03-17T17:54:07.754976","MEAN_MOTION_DOT":"0.00003279","GP_ID":"198992268","NORAD_CAT_ID":"48437","SEMIMAJOR_AXIS":"6925.366","APOAPSIS":"548.461","PERIOD":"95.593","EPHEMERIS_TYPE":"0","OBJECT_NAME":"STARLINK-2642","MEAN_MOTION_DDOT":"0.0000000000000","SITE":"AFETR","PERIAPSIS":"546.002","ECCENTRICITY":"0.00017750","BSTAR":"0.00023895000000","COUNTRY_CODE":"US","ARG_OF_PERICENTER":"65.8113","RA_OF_ASC_NODE":"234.1397","MEAN_ANOMALY":"294.3061","FILE":"3363151"},{"EPOCH":"2022-03-17T21:22:27.866784","MEAN_MOTION_DOT":"0.00003527","GP_ID":"198993019","REV_AT_EPOCH":"4765","PERIOD":"95.593","EPHEMERIS_TYPE":"0","NORAD_CAT_ID":"48438","SEMIMAJOR_AXIS":"6925.368","APOAPSIS":"548.488","SITE":"AFETR","OBJECT_NAME":"STARLINK-2640","MEAN_MOTION_DDOT":"0.0000000000000","ARG_OF_PERICENTER":"49.5751","COUNTRY_CODE":"US","RA_OF_ASC_NODE":"223.4932","MEAN_ANOMALY":"310.5396","FILE":"3363151","PERIAPSIS":"545.978","BSTAR":"0.00025560000000","ECCENTRICITY":"0.00018120","TIME_SYSTEM":"UTC","RCS_SIZE":"LARGE","LAUNCH_DATE":"2021-05-09","TLE_LINE2":"2 48438  53.0523 223.4932 0001812  49.5751 310.5396 15.06393578 47651","MEAN_MOTION":"15.06393578","INCLINATION":"53.0523","TLE_LINE1":"1 48438U 21040L   22076.89060031  .00003527  00000-0  25560-3 0  9996","REF_FRAME":"TEME","ELEMENT_SET_NO":"999","CLASSIFICATION_TYPE":"U","MEAN_ELEMENT_THEORY":"SGP4","DECAY_DATE":null,"OBJECT_ID":"2021-040L","CENTER_NAME":"EARTH","OBJECT_TYPE":"PAYLOAD"},{"SITE":"AFETR","MEAN_MOTION_DDOT":"0.0000000000000","OBJECT_NAME":"STARLINK-2583","FILE":"3363151","MEAN_ANOMALY":"297.3960","COUNTRY_CODE":"US","RA_OF_ASC_NODE":"223.8111","ARG_OF_PERICENTER":"62.7171","ECCENTRICITY":"0.00014000","BSTAR":"0.00004932800000","PERIAPSIS":"546.244","GP_ID":"198991267","MEAN_MOTION_DOT":"0.00000453","EPOCH":"2022-03-17T19:41:36.428064","REV_AT_EPOCH":"4764","EPHEMERIS_TYPE":"0","PERIOD":"95.592","APOAPSIS":"548.183","NORAD_CAT_ID":"48439","SEMIMAJOR_AXIS":"6925.348","MEAN_ELEMENT_THEORY":"SGP4","CLASSIFICATION_TYPE":"U","DECAY_DATE":null,"OBJECT_ID":"2021-040M","CENTER_NAME":"EARTH","OBJECT_TYPE":"PAYLOAD","RCS_SIZE":"LARGE","TIME_SYSTEM":"UTC","TLE_LINE2":"2 48439  53.0547 223.8111 0001400  62.7171 297.3960 15.06400058 47647","LAUNCH_DATE":"2021-05-09","ELEMENT_SET_NO":"999","REF_FRAME":"TEME","TLE_LINE1":"1 48439U 21040M   22076.82056051  .00000453  00000-0  49328-4 0  9991","INCLINATION":"53.0547","MEAN_MOTION":"15.06400058"},{"PERIOD":"95.592","EPHEMERIS_TYPE":"0","SEMIMAJOR_AXIS":"6925.344","NORAD_CAT_ID":"48440","APOAPSIS":"548.402","EPOCH":"2022-03-17T21:11:50.885376","MEAN_MOTION_DOT":"0.00010497","GP_ID":"198991517","REV_AT_EPOCH":"4765","COUNTRY_CODE":"US","ARG_OF_PERICENTER":"60.2680","RA_OF_ASC_NODE":"223.5290","MEAN_ANOMALY":"299.8481","FILE":"3363151","PERIAPSIS":"546.016","ECCENTRICITY":"0.00017230","BSTAR":"0.00072250000000","SITE":"AFETR","OBJECT_NAME":"STARLINK-2682","MEAN_MOTION_DDOT":"0.0000000000000","INCLINATION":"53.0539","MEAN_MOTION":"15.06401547","REF_FRAME":"TEME","TLE_LINE1":"1 48440U 21040N   22076.88322784  .00010497  00000-0  72250-3 0  9996","ELEMENT_SET_NO":"999","TIME_SYSTEM":"UTC","RCS_SIZE":"LARGE","LAUNCH_DATE":"2021-05-09","TLE_LINE2":"2 48440  53.0539 223.5290 0001723  60.2680 299.8481 15.06401547 47651","CENTER_NAME":"EARTH","OBJECT_TYPE":"PAYLOAD","CLASSIFICATION_TYPE":"U","MEAN_ELEMENT_THEORY":"SGP4","DECAY_DATE":null,"OBJECT_ID":"2021-040N"},{"NORAD_CAT_ID":"48441","SEMIMAJOR_AXIS":"6925.369","APOAPSIS":"548.467","PERIOD":"95.593","EPHEMERIS_TYPE":"0","REV_AT_EPOCH":"4762","EPOCH":"2022-03-17T16:19:56.405280","MEAN_MOTION_DOT":"0.00002516","GP_ID":"198992769","PERIAPSIS":"546.002","ECCENTRICITY":"0.00017800","BSTAR":"0.00018775000000","RA_OF_ASC_NODE":"224.4387","COUNTRY_CODE":"US","ARG_OF_PERICENTER":"66.7206","MEAN_ANOMALY":"293.3970","FILE":"3363151","OBJECT_NAME":"STARLINK-2702","MEAN_MOTION_DDOT":"0.0000000000000","SITE":"AFETR","MEAN_MOTION":"15.06393219","INCLINATION":"53.0555","REF_FRAME":"TEME","TLE_LINE1":"1 48441U 21040P   22076.68051395  .00002516  00000-0  18775-3 0  9997","ELEMENT_SET_NO":"999","LAUNCH_DATE":"2021-05-09","TLE_LINE2":"2 48441  53.0555 224.4387 0001780  66.7206 293.3970 15.06393219 47620","TIME_SYSTEM":"UTC","RCS_SIZE":"LARGE","OBJECT_TYPE":"PAYLOAD","CENTER_NAME":"EARTH","DECAY_DATE":null,"OBJECT_ID":"2021-040P","CLASSIFICATION_TYPE":"U","MEAN_ELEMENT_THEORY":"SGP4"}];
